{"fetched_at":"2026-07-22T07:09:16.996Z","source":"https://celestrak.org/NORAD/elements/gp.php?GROUP=globalstar&FORMAT=JSON","constellation":"globalstar","records":[{"OBJECT_NAME":"GLOBALSTAR M069","OBJECT_ID":"2007-020C","EPOCH":"2026-07-21T06:39:59.668416","CLASSIFICATION_TYPE":"U","MEAN_MOTION":12.23472434,"ECCENTRICITY":0.00015008,"INCLINATION":52.0016,"RA_OF_ASC_NODE":155.6351,"ARG_OF_PERICENTER":223.519,"MEAN_ANOMALY":282.3705,"EPHEMERIS_TYPE":0,"NORAD_CAT_ID":31573,"ELEMENT_SET_NO":999,"REV_AT_EPOCH":88297,"BSTAR":0.00036908606,"MEAN_MOTION_DOT":-5.3e-7,"MEAN_MOTION_DDOT":0},{"OBJECT_NAME":"GLOBALSTAR M072","OBJECT_ID":"2007-020D","EPOCH":"2026-07-21T12:27:42.892416","CLASSIFICATION_TYPE":"U","MEAN_MOTION":11.91658745,"ECCENTRICITY":0.00016359,"INCLINATION":51.9954,"RA_OF_ASC_NODE":8.8443,"ARG_OF_PERICENTER":46.5661,"MEAN_ANOMALY":347.9129,"EPHEMERIS_TYPE":0,"NORAD_CAT_ID":31574,"ELEMENT_SET_NO":999,"REV_AT_EPOCH":87907,"BSTAR":-0.000072513577,"MEAN_MOTION_DOT":-8.9e-7,"MEAN_MOTION_DDOT":0},{"OBJECT_NAME":"GLOBALSTAR M066","OBJECT_ID":"2007-048C","EPOCH":"2026-07-21T08:26:38.708160","CLASSIFICATION_TYPE":"U","MEAN_MOTION":12.3039027,"ECCENTRICITY":0.00055055,"INCLINATION":51.9612,"RA_OF_ASC_NODE":319.8371,"ARG_OF_PERICENTER":114.2649,"MEAN_ANOMALY":279.824,"EPHEMERIS_TYPE":0,"NORAD_CAT_ID":32265,"ELEMENT_SET_NO":999,"REV_AT_EPOCH":86443,"BSTAR":0.00056557854,"MEAN_MOTION_DOT":-2.8e-7,"MEAN_MOTION_DDOT":0},{"OBJECT_NAME":"GLOBALSTAR M079","OBJECT_ID":"2010-054A","EPOCH":"2026-07-21T09:55:04.436256","CLASSIFICATION_TYPE":"U","MEAN_MOTION":12.6226644,"ECCENTRICITY":0.00011179,"INCLINATION":52.0058,"RA_OF_ASC_NODE":4.4806,"ARG_OF_PERICENTER":87.7798,"MEAN_ANOMALY":289.1945,"EPHEMERIS_TYPE":0,"NORAD_CAT_ID":37188,"ELEMENT_SET_NO":999,"REV_AT_EPOCH":72687,"BSTAR":0.000019354445,"MEAN_MOTION_DOT":-0.000001,"MEAN_MOTION_DDOT":0},{"OBJECT_NAME":"GLOBALSTAR M074","OBJECT_ID":"2010-054B","EPOCH":"2026-07-21T10:33:20.295936","CLASSIFICATION_TYPE":"U","MEAN_MOTION":12.62262026,"ECCENTRICITY":0.0000844,"INCLINATION":52.0036,"RA_OF_ASC_NODE":3.6599,"ARG_OF_PERICENTER":102.6785,"MEAN_ANOMALY":274.9845,"EPHEMERIS_TYPE":0,"NORAD_CAT_ID":37189,"ELEMENT_SET_NO":999,"REV_AT_EPOCH":72748,"BSTAR":-0.000017689563,"MEAN_MOTION_DOT":-0.00000107,"MEAN_MOTION_DDOT":0},{"OBJECT_NAME":"GLOBALSTAR M076","OBJECT_ID":"2010-054C","EPOCH":"2026-07-21T11:16:31.168416","CLASSIFICATION_TYPE":"U","MEAN_MOTION":12.62262604,"ECCENTRICITY":0.00010909,"INCLINATION":52.0052,"RA_OF_ASC_NODE":3.775,"ARG_OF_PERICENTER":99.8302,"MEAN_ANOMALY":294.0782,"EPHEMERIS_TYPE":0,"NORAD_CAT_ID":37190,"ELEMENT_SET_NO":999,"REV_AT_EPOCH":72720,"BSTAR":0.000091824278,"MEAN_MOTION_DOT":-8.7e-7,"MEAN_MOTION_DDOT":0},{"OBJECT_NAME":"GLOBALSTAR M077","OBJECT_ID":"2010-054D","EPOCH":"2026-07-21T03:08:44.421216","CLASSIFICATION_TYPE":"U","MEAN_MOTION":11.67547146,"ECCENTRICITY":0.0002166,"INCLINATION":51.9962,"RA_OF_ASC_NODE":93.141,"ARG_OF_PERICENTER":236.1382,"MEAN_ANOMALY":271.8029,"EPHEMERIS_TYPE":0,"NORAD_CAT_ID":37191,"ELEMENT_SET_NO":999,"REV_AT_EPOCH":72510,"BSTAR":-0.00034664809,"MEAN_MOTION_DOT":-9.7e-7,"MEAN_MOTION_DDOT":0},{"OBJECT_NAME":"GLOBALSTAR M075","OBJECT_ID":"2010-054E","EPOCH":"2026-07-21T13:23:53.003904","CLASSIFICATION_TYPE":"U","MEAN_MOTION":12.62267898,"ECCENTRICITY":0.00007911,"INCLINATION":51.9956,"RA_OF_ASC_NODE":45.5403,"ARG_OF_PERICENTER":73.8767,"MEAN_ANOMALY":302.7973,"EPHEMERIS_TYPE":0,"NORAD_CAT_ID":37192,"ELEMENT_SET_NO":999,"REV_AT_EPOCH":72628,"BSTAR":-0.000020757753,"MEAN_MOTION_DOT":-0.00000107,"MEAN_MOTION_DDOT":0},{"OBJECT_NAME":"GLOBALSTAR M073","OBJECT_ID":"2010-054F","EPOCH":"2026-07-21T07:45:36.482688","CLASSIFICATION_TYPE":"U","MEAN_MOTION":12.62266957,"ECCENTRICITY":0.00009823,"INCLINATION":52.0082,"RA_OF_ASC_NODE":320.3836,"ARG_OF_PERICENTER":106.4667,"MEAN_ANOMALY":280.4937,"EPHEMERIS_TYPE":0,"NORAD_CAT_ID":37193,"ELEMENT_SET_NO":999,"REV_AT_EPOCH":72824,"BSTAR":0.000034515837,"MEAN_MOTION_DOT":-9.8e-7,"MEAN_MOTION_DDOT":0},{"OBJECT_NAME":"GLOBALSTAR M083","OBJECT_ID":"2011-033A","EPOCH":"2026-07-21T04:15:56.975328","CLASSIFICATION_TYPE":"U","MEAN_MOTION":12.62264365,"ECCENTRICITY":0.00006869,"INCLINATION":51.9854,"RA_OF_ASC_NODE":269.01,"ARG_OF_PERICENTER":111.8727,"MEAN_ANOMALY":274.4002,"EPHEMERIS_TYPE":0,"NORAD_CAT_ID":37739,"ELEMENT_SET_NO":999,"REV_AT_EPOCH":69724,"BSTAR":0.000045144795,"MEAN_MOTION_DOT":-9.6e-7,"MEAN_MOTION_DDOT":0},{"OBJECT_NAME":"GLOBALSTAR M088","OBJECT_ID":"2011-033B","EPOCH":"2026-07-21T15:48:24.487200","CLASSIFICATION_TYPE":"U","MEAN_MOTION":12.62269511,"ECCENTRICITY":0.00001642,"INCLINATION":52.0193,"RA_OF_ASC_NODE":174.0539,"ARG_OF_PERICENTER":34.7131,"MEAN_ANOMALY":136.5647,"EPHEMERIS_TYPE":0,"NORAD_CAT_ID":37740,"ELEMENT_SET_NO":999,"REV_AT_EPOCH":69284,"BSTAR":0.000070722705,"MEAN_MOTION_DOT":-9.1e-7,"MEAN_MOTION_DDOT":0},{"OBJECT_NAME":"GLOBALSTAR M091","OBJECT_ID":"2011-033C","EPOCH":"2026-07-21T14:13:05.063808","CLASSIFICATION_TYPE":"U","MEAN_MOTION":12.6226432,"ECCENTRICITY":0.00005766,"INCLINATION":51.999,"RA_OF_ASC_NODE":137.1704,"ARG_OF_PERICENTER":34.7339,"MEAN_ANOMALY":136.098,"EPHEMERIS_TYPE":0,"NORAD_CAT_ID":37741,"ELEMENT_SET_NO":999,"REV_AT_EPOCH":69362,"BSTAR":0.00008017242,"MEAN_MOTION_DOT":-8.9e-7,"MEAN_MOTION_DDOT":0},{"OBJECT_NAME":"GLOBALSTAR M085","OBJECT_ID":"2011-033D","EPOCH":"2026-07-21T14:58:13.843776","CLASSIFICATION_TYPE":"U","MEAN_MOTION":12.62264537,"ECCENTRICITY":0.00008951,"INCLINATION":52.0129,"RA_OF_ASC_NODE":88.3976,"ARG_OF_PERICENTER":52.808,"MEAN_ANOMALY":320.5603,"EPHEMERIS_TYPE":0,"NORAD_CAT_ID":37742,"ELEMENT_SET_NO":999,"REV_AT_EPOCH":69414,"BSTAR":0.000051315223,"MEAN_MOTION_DOT":-9.5e-7,"MEAN_MOTION_DDOT":0},{"OBJECT_NAME":"GLOBALSTAR M081","OBJECT_ID":"2011-033E","EPOCH":"2026-07-21T15:36:53.028000","CLASSIFICATION_TYPE":"U","MEAN_MOTION":12.62265396,"ECCENTRICITY":0.0000772,"INCLINATION":51.996,"RA_OF_ASC_NODE":90.7126,"ARG_OF_PERICENTER":63.9518,"MEAN_ANOMALY":311.3404,"EPHEMERIS_TYPE":0,"NORAD_CAT_ID":37743,"ELEMENT_SET_NO":999,"REV_AT_EPOCH":69429,"BSTAR":0.000023640548,"MEAN_MOTION_DOT":-0.000001,"MEAN_MOTION_DDOT":0},{"OBJECT_NAME":"GLOBALSTAR M089","OBJECT_ID":"2011-033F","EPOCH":"2026-07-21T00:10:44.894784","CLASSIFICATION_TYPE":"U","MEAN_MOTION":12.6226764,"ECCENTRICITY":0.00007254,"INCLINATION":51.9941,"RA_OF_ASC_NODE":46.8226,"ARG_OF_PERICENTER":96.2894,"MEAN_ANOMALY":56.1622,"EPHEMERIS_TYPE":0,"NORAD_CAT_ID":37744,"ELEMENT_SET_NO":999,"REV_AT_EPOCH":69505,"BSTAR":-0.000007708394,"MEAN_MOTION_DOT":-0.00000105,"MEAN_MOTION_DDOT":0},{"OBJECT_NAME":"GLOBALSTAR M084","OBJECT_ID":"2011-080A","EPOCH":"2026-07-21T11:09:54.633888","CLASSIFICATION_TYPE":"U","MEAN_MOTION":12.62263695,"ECCENTRICITY":0.00006958,"INCLINATION":52.0008,"RA_OF_ASC_NODE":272.9305,"ARG_OF_PERICENTER":141.694,"MEAN_ANOMALY":231.5843,"EPHEMERIS_TYPE":0,"NORAD_CAT_ID":38040,"ELEMENT_SET_NO":999,"REV_AT_EPOCH":67309,"BSTAR":0.000048348716,"MEAN_MOTION_DOT":-9.5e-7,"MEAN_MOTION_DDOT":0}]}
