{"epoch":1784710044,"count":18256,"objects":[{"id":"31573","name":"GLOBALSTAR M069","type":"PAYLOAD","l1":"1 31573U 07020C   26202.27777394 -.00000053  00000-0  36909-3 0  9995","l2":"2 31573  52.0016 155.6351 0001501 223.5190 282.3705 12.23472434882973"},{"id":"31574","name":"GLOBALSTAR M072","type":"PAYLOAD","l1":"1 31574U 07020D   26202.51924644 -.00000089  00000-0 -72514-4 0  9998","l2":"2 31574  51.9954   8.8443 0001636  46.5661 347.9129 11.91658745879079"},{"id":"32265","name":"GLOBALSTAR M066","type":"PAYLOAD","l1":"1 32265U 07048C   26202.35183690 -.00000028  00000-0  56558-3 0  9997","l2":"2 32265  51.9612 319.8371 0005506 114.2649 279.8240 12.30390270864433"},{"id":"37188","name":"GLOBALSTAR M079","type":"PAYLOAD","l1":"1 37188U 10054A   26202.41324579 -.00000100  00000-0  19354-4 0  9992","l2":"2 37188  52.0058   4.4806 0001118  87.7798 289.1945 12.62266440726879"},{"id":"37189","name":"GLOBALSTAR M074","type":"PAYLOAD","l1":"1 37189U 10054B   26202.43981824 -.00000107  00000-0 -17690-4 0  9996","l2":"2 37189  52.0036   3.6599 0000844 102.6785 274.9845 12.62262026727489"},{"id":"37190","name":"GLOBALSTAR M076","type":"PAYLOAD","l1":"1 37190U 10054C   26202.46980519 -.00000087  00000-0  91824-4 0  9998","l2":"2 37190  52.0052   3.7750 0001091  99.8302 294.0782 12.62262604727201"},{"id":"37191","name":"GLOBALSTAR M077","type":"PAYLOAD","l1":"1 37191U 10054D   26202.13106969 -.00000097  00000-0 -34665-3 0  9993","l2":"2 37191  51.9962  93.1410 0002166 236.1382 271.8029 11.67547146725109"},{"id":"37192","name":"GLOBALSTAR M075","type":"PAYLOAD","l1":"1 37192U 10054E   26202.55825236 -.00000107  00000-0 -20758-4 0  9996","l2":"2 37192  51.9956  45.5403 0000791  73.8767 302.7973 12.62267898726282"},{"id":"37193","name":"GLOBALSTAR M073","type":"PAYLOAD","l1":"1 37193U 10054F   26202.32333892 -.00000098  00000-0  34516-4 0  9999","l2":"2 37193  52.0082 320.3836 0000982 106.4667 280.4937 12.62266957728248"},{"id":"37739","name":"GLOBALSTAR M083","type":"PAYLOAD","l1":"1 37739U 11033A   26202.17774277 -.00000096  00000-0  45145-4 0  9990","l2":"2 37739  51.9854 269.0100 0000687 111.8727 274.4002 12.62264365697243"},{"id":"37740","name":"GLOBALSTAR M088","type":"PAYLOAD","l1":"1 37740U 11033B   26202.65861675 -.00000091  00000-0  70723-4 0  9999","l2":"2 37740  52.0193 174.0539 0000164  34.7131 136.5647 12.62269511692848"},{"id":"37741","name":"GLOBALSTAR M091","type":"PAYLOAD","l1":"1 37741U 11033C   26202.59241972 -.00000089  00000-0  80172-4 0  9991","l2":"2 37741  51.9990 137.1704 0000577  34.7339 136.0980 12.62264320693629"},{"id":"37742","name":"GLOBALSTAR M085","type":"PAYLOAD","l1":"1 37742U 11033D   26202.62377134 -.00000095  00000-0  51315-4 0  9990","l2":"2 37742  52.0129  88.3976 0000895  52.8080 320.5603 12.62264537694141"},{"id":"37743","name":"GLOBALSTAR M081","type":"PAYLOAD","l1":"1 37743U 11033E   26202.65061375 -.00000100  00000-0  23641-4 0  9999","l2":"2 37743  51.9960  90.7126 0000772  63.9518 311.3404 12.62265396694297"},{"id":"37744","name":"GLOBALSTAR M089","type":"PAYLOAD","l1":"1 37744U 11033F   26202.00746406 -.00000105  00000-0 -77084-5 0  9991","l2":"2 37744  51.9941  46.8226 0000725  96.2894  56.1622 12.62267640695059"},{"id":"38040","name":"GLOBALSTAR M084","type":"PAYLOAD","l1":"1 38040U 11080A   26202.46521567 -.00000095  00000-0  48349-4 0  9990","l2":"2 38040  52.0008 272.9305 0000696 141.6940 231.5843 12.62263695673099"}]}